[{"OBJECT_NAME":"FLOCK 4G-7","OBJECT_ID":"2025-009R","EPOCH":"2026-03-09T19:11:56.638176","MEAN_MOTION":15.27141471,"ECCENTRICITY":0.00013963,"INCLINATION":97.3984,"RA_OF_ASC_NODE":150.827,"ARG_OF_PERICENTER":336.9783,"MEAN_ANOMALY":23.1393,"EPHEMERIS_TYPE":0,"CLASSIFICATION_TYPE":"U","NORAD_CAT_ID":62624,"ELEMENT_SET_NO":999,"REV_AT_EPOCH":6372,"BSTAR":0.0004316781,"MEAN_MOTION_DOT":0.00011422,"MEAN_MOTION_DDOT":0},{"OBJECT_NAME":"STARLINK-33690","OBJECT_ID":"2025-065H","EPOCH":"2026-03-09T09:56:58.059168","MEAN_MOTION":15.27613266,"ECCENTRICITY":0.00042388,"INCLINATION":43.0027,"RA_OF_ASC_NODE":104.679,"ARG_OF_PERICENTER":255.1959,"MEAN_ANOMALY":104.8424,"EPHEMERIS_TYPE":0,"CLASSIFICATION_TYPE":"U","NORAD_CAT_ID":63406,"ELEMENT_SET_NO":999,"REV_AT_EPOCH":5284,"BSTAR":0.0012608006,"MEAN_MOTION_DOT":0.00034637,"MEAN_MOTION_DDOT":0}]
