FLOCK 4G-7              
1 62624U 25009R   26068.79996108  .00011422  00000+0  43168-3 0  9991
2 62624  97.3984 150.8270 0001396 336.9783  23.1393 15.27141471 63725
STARLINK-33690          
1 63406U 25065H   26068.41456087  .00034637  00000+0  12608-2 0  9995
2 63406  43.0027 104.6790 0004238 255.1959 104.8424 15.27613266 52848
